[{"OBJECT_NAME":"AL MUNTHER","OBJECT_ID":"2025-052AG","EPOCH":"2026-03-09T15:29:23.207136","MEAN_MOTION":15.28381521,"ECCENTRICITY":0.0008027,"INCLINATION":97.4001,"RA_OF_ASC_NODE":323.9152,"ARG_OF_PERICENTER":130.7043,"MEAN_ANOMALY":229.4895,"EPHEMERIS_TYPE":0,"CLASSIFICATION_TYPE":"U","NORAD_CAT_ID":63240,"ELEMENT_SET_NO":999,"REV_AT_EPOCH":5479,"BSTAR":0.00065015,"MEAN_MOTION_DOT":0.00017933,"MEAN_MOTION_DDOT":0},{"OBJECT_NAME":"STARLINK-33903","OBJECT_ID":"2025-092AA","EPOCH":"2026-03-09T06:58:31.836864","MEAN_MOTION":15.27590184,"ECCENTRICITY":0.00017604,"INCLINATION":43.0062,"RA_OF_ASC_NODE":174.7963,"ARG_OF_PERICENTER":272.7263,"MEAN_ANOMALY":87.3387,"EPHEMERIS_TYPE":0,"CLASSIFICATION_TYPE":"U","NORAD_CAT_ID":63828,"ELEMENT_SET_NO":999,"REV_AT_EPOCH":4860,"BSTAR":0.0010205538,"MEAN_MOTION_DOT":0.00027937,"MEAN_MOTION_DDOT":0}]
